{
  "type": "FeatureCollection",
  "features": [
    {
      "type": "Feature",
      "properties": { "id": "eeggc", "name": "Estudios Generales Ciencias", "category": "Aulas", "description": "Tu base principal. Aulas para tus primeras prácticas y exámenes." },
      "geometry": { "type": "Point", "coordinates": [-77.0794, -12.0689] }
    },
    {
      "type": "Feature",
      "properties": { "id": "pab-z", "name": "Pabellón Z", "category": "Aulas", "description": "Aulas multipropósito y de gran capacidad." },
      "geometry": { "type": "Point", "coordinates": [-77.0810, -12.0682] }
    },
    {
      "type": "Feature",
      "properties": { "id": "pab-n", "name": "Pabellón N (Mac Gregor)", "category": "Aulas", "description": "Infraestructura moderna y espacios amplios de estudio." },
      "geometry": { "type": "Point", "coordinates": [-77.0785, -12.0680] }
    },
    {
      "type": "Feature",
      "properties": { "id": "pab-e", "name": "Pabellón E", "category": "Laboratorios", "description": "Pabellón clásico con laboratorios de ciencias." },
      "geometry": { "type": "Point", "coordinates": [-77.0815, -12.0700] }
    },
    {
      "type": "Feature",
      "properties": { "id": "pab-q", "name": "Pabellón Q", "category": "Aulas", "description": "Aulas adicionales para cursos de ciencias e ingeniería." },
      "geometry": { "type": "Point", "coordinates": [-77.0805, -12.0675] }
    },
    {
      "type": "Feature",
      "properties": { "id": "cia", "name": "Complejo de Innovación Académica", "category": "Servicios", "description": "Aulario, biblioteca especializada y salas de computo." },
      "geometry": { "type": "Point", "coordinates": [-77.0790, -12.0705] }
    }
  ]
}
